[{"OBJECT_NAME":"AC1-001","OBJECT_ID":"2025-276CG","EPOCH":"2026-03-09T17:01:33.320352","MEAN_MOTION":15.17859032,"ECCENTRICITY":0.00029713,"INCLINATION":97.4276,"RA_OF_ASC_NODE":143.9133,"ARG_OF_PERICENTER":22.5153,"MEAN_ANOMALY":337.6211,"EPHEMERIS_TYPE":0,"CLASSIFICATION_TYPE":"U","NORAD_CAT_ID":66744,"ELEMENT_SET_NO":999,"REV_AT_EPOCH":1531,"BSTAR":0.00015685354,"MEAN_MOTION_DOT":3.109e-5,"MEAN_MOTION_DDOT":0},{"OBJECT_NAME":"CHUBUSAT-3","OBJECT_ID":"2016-012C","EPOCH":"2026-03-09T22:11:59.804736","MEAN_MOTION":15.17633969,"ECCENTRICITY":0.00091539,"INCLINATION":31.0042,"RA_OF_ASC_NODE":259.576,"ARG_OF_PERICENTER":133.2555,"MEAN_ANOMALY":226.885,"EPHEMERIS_TYPE":0,"CLASSIFICATION_TYPE":"U","NORAD_CAT_ID":41339,"ELEMENT_SET_NO":999,"REV_AT_EPOCH":55310,"BSTAR":0.00036072373,"MEAN_MOTION_DOT":7.561e-5,"MEAN_MOTION_DDOT":0}]
